start=new Date('2022-09-28T00:00:00.000Z').valueOf();
sats=[{"EPHEMERIS_TYPE":"0","OBJECT_ID":"2021-044P","OBJECT_NAME":"STARLINK-2731","ARG_OF_PERICENTER":"73.7920","OBJECT_TYPE":"PAYLOAD","TIME_SYSTEM":"UTC","MEAN_ELEMENT_THEORY":"SGP4","DECAY_DATE":null,"INCLINATION":"53.0557","RCS_SIZE":"LARGE","REV_AT_EPOCH":"7479","SEMIMAJOR_AXIS":"6925.449","APOAPSIS":"548.408","FILE":"3585240","LAUNCH_DATE":"2021-05-26","CLASSIFICATION_TYPE":"U","GP_ID":"213643374","EPOCH":"2022-09-27T18:06:21.354912","SITE":"AFETR","NORAD_CAT_ID":"48651","MEAN_MOTION_DDOT":"0.0000000000000","PERIAPSIS":"546.219","ECCENTRICITY":"0.00015800","RA_OF_ASC_NODE":"13.2060","TLE_LINE1":"1 48651U 21044P   22270.75441383  .00008133  00000-0  56475-3 0  9998","TLE_LINE2":"2 48651  53.0557  13.2060 0001580  73.7920 286.3242 15.06367365 74791","PERIOD":"95.594","MEAN_MOTION_DOT":"0.00008133","BSTAR":"0.00056475000000","CENTER_NAME":"EARTH","MEAN_ANOMALY":"286.3242","REF_FRAME":"TEME","ELEMENT_SET_NO":"999","MEAN_MOTION":"15.06367365","COUNTRY_CODE":"US"},{"INCLINATION":"53.0538","RCS_SIZE":"LARGE","SEMIMAJOR_AXIS":"6925.362","APOAPSIS":"548.166","REV_AT_EPOCH":"7394","FILE":"3585280","LAUNCH_DATE":"2021-05-26","CLASSIFICATION_TYPE":"U","EPHEMERIS_TYPE":"0","OBJECT_ID":"2021-044Q","OBJECT_NAME":"STARLINK-2727","OBJECT_TYPE":"PAYLOAD","TIME_SYSTEM":"UTC","ARG_OF_PERICENTER":"64.4676","MEAN_ELEMENT_THEORY":"SGP4","DECAY_DATE":null,"MEAN_MOTION_DOT":"0.00001682","BSTAR":"0.00013180000000","PERIOD":"95.592","REF_FRAME":"TEME","MEAN_ANOMALY":"295.6453","CENTER_NAME":"EARTH","ELEMENT_SET_NO":"999","MEAN_MOTION":"15.06395630","COUNTRY_CODE":"US","SITE":"AFETR","GP_ID":"213665586","EPOCH":"2022-09-27T16:25:30.474336","NORAD_CAT_ID":"48652","PERIAPSIS":"546.288","MEAN_MOTION_DDOT":"0.0000000000000","ECCENTRICITY":"0.00013560","RA_OF_ASC_NODE":"13.5284","TLE_LINE1":"1 48652U 21044Q   22270.68438049  .00001682  00000-0  13180-3 0  9994","TLE_LINE2":"2 48652  53.0538  13.5284 0001356  64.4676 295.6453 15.06395630 73947"},{"COUNTRY_CODE":"US","MEAN_MOTION":"15.06385269","REF_FRAME":"TEME","MEAN_ANOMALY":"288.8923","CENTER_NAME":"EARTH","ELEMENT_SET_NO":"999","BSTAR":"0.00018096000000","MEAN_MOTION_DOT":"0.00002414","PERIOD":"95.593","TLE_LINE1":"1 48653U 21044R   22270.68070017  .00002414  00000-0  18096-3 0  9997","TLE_LINE2":"2 48653  53.0572  13.5399 0001524  71.2232 288.8923 15.06385269 73947","PERIAPSIS":"546.203","MEAN_MOTION_DDOT":"0.0000000000000","ECCENTRICITY":"0.00015240","RA_OF_ASC_NODE":"13.5399","NORAD_CAT_ID":"48653","SITE":"AFETR","EPOCH":"2022-09-27T16:20:12.494688","GP_ID":"213665838","CLASSIFICATION_TYPE":"U","LAUNCH_DATE":"2021-05-26","FILE":"3585280","RCS_SIZE":"LARGE","INCLINATION":"53.0572","APOAPSIS":"548.314","SEMIMAJOR_AXIS":"6925.394","REV_AT_EPOCH":"7394","DECAY_DATE":null,"MEAN_ELEMENT_THEORY":"SGP4","OBJECT_NAME":"STARLINK-2720","OBJECT_TYPE":"PAYLOAD","TIME_SYSTEM":"UTC","ARG_OF_PERICENTER":"71.2232","EPHEMERIS_TYPE":"0","OBJECT_ID":"2021-044R"},{"COUNTRY_CODE":"US","MEAN_MOTION":"15.06400127","ELEMENT_SET_NO":"999","CENTER_NAME":"EARTH","MEAN_ANOMALY":"276.5435","REF_FRAME":"TEME","PERIOD":"95.592","BSTAR":"0.00017540000000","MEAN_MOTION_DOT":"0.00002332","TLE_LINE2":"2 48654  53.0554  13.5596 0001396  83.5713 276.5435 15.06400127 73947","TLE_LINE1":"1 48654U 21044S   22270.67700132  .00002332  00000-0  17540-3 0  9997","ECCENTRICITY":"0.00013960","RA_OF_ASC_NODE":"13.5596","MEAN_MOTION_DDOT":"0.0000000000000","PERIAPSIS":"546.246","NORAD_CAT_ID":"48654","GP_ID":"213666082","EPOCH":"2022-09-27T16:14:52.914048","SITE":"AFETR","CLASSIFICATION_TYPE":"U","LAUNCH_DATE":"2021-05-26","FILE":"3585280","REV_AT_EPOCH":"7394","SEMIMAJOR_AXIS":"6925.348","APOAPSIS":"548.180","RCS_SIZE":"LARGE","INCLINATION":"53.0554","MEAN_ELEMENT_THEORY":"SGP4","DECAY_DATE":null,"ARG_OF_PERICENTER":"83.5713","TIME_SYSTEM":"UTC","OBJECT_TYPE":"PAYLOAD","OBJECT_NAME":"STARLINK-2651","EPHEMERIS_TYPE":"0","OBJECT_ID":"2021-044S"},{"MEAN_MOTION":"15.06397355","COUNTRY_CODE":"US","BSTAR":"0.00015733000000","MEAN_MOTION_DOT":"0.00002063","PERIOD":"95.592","ELEMENT_SET_NO":"999","REF_FRAME":"TEME","MEAN_ANOMALY":"297.4602","CENTER_NAME":"EARTH","ECCENTRICITY":"0.00015470","RA_OF_ASC_NODE":"12.9778","MEAN_MOTION_DDOT":"0.0000000000000","PERIAPSIS":"546.150","TLE_LINE2":"2 48655  53.0566  12.9778 0001547  62.6544 297.4602 15.06397355 73962","TLE_LINE1":"1 48655U 21044T   22270.80601410  .00002063  00000-0  15733-3 0  9995","SITE":"AFETR","GP_ID":"213665336","EPOCH":"2022-09-27T19:20:39.618240","NORAD_CAT_ID":"48655","LAUNCH_DATE":"2021-05-26","CLASSIFICATION_TYPE":"U","SEMIMAJOR_AXIS":"6925.357","APOAPSIS":"548.293","REV_AT_EPOCH":"7396","RCS_SIZE":"LARGE","INCLINATION":"53.0566","FILE":"3585280","DECAY_DATE":null,"MEAN_ELEMENT_THEORY":"SGP4","EPHEMERIS_TYPE":"0","OBJECT_ID":"2021-044T","OBJECT_TYPE":"PAYLOAD","TIME_SYSTEM":"UTC","ARG_OF_PERICENTER":"62.6544","OBJECT_NAME":"STARLINK-2657"},{"DECAY_DATE":null,"MEAN_ELEMENT_THEORY":"SGP4","OBJECT_ID":"2021-044U","EPHEMERIS_TYPE":"0","OBJECT_TYPE":"PAYLOAD","TIME_SYSTEM":"UTC","ARG_OF_PERICENTER":"68.5434","OBJECT_NAME":"STARLINK-2701","LAUNCH_DATE":"2021-05-26","CLASSIFICATION_TYPE":"U","SEMIMAJOR_AXIS":"6925.367","APOAPSIS":"548.248","REV_AT_EPOCH":"7396","INCLINATION":"53.0564","RCS_SIZE":"LARGE","FILE":"3585280","RA_OF_ASC_NODE":"12.9954","ECCENTRICITY":"0.00014670","PERIAPSIS":"546.216","MEAN_MOTION_DDOT":"0.0000000000000","TLE_LINE2":"2 48656  53.0564  12.9954 0001467  68.5434 291.5711 15.06393973 73969","TLE_LINE1":"1 48656U 21044U   22270.80232826  .00000526  00000-0  54243-4 0  9999","SITE":"AFETR","GP_ID":"213665087","EPOCH":"2022-09-27T19:15:21.161664","NORAD_CAT_ID":"48656","MEAN_MOTION":"15.06393973","COUNTRY_CODE":"US","BSTAR":"0.00005424300000","MEAN_MOTION_DOT":"0.00000526","PERIOD":"95.593","ELEMENT_SET_NO":"999","REF_FRAME":"TEME","CENTER_NAME":"EARTH","MEAN_ANOMALY":"291.5711"},{"CLASSIFICATION_TYPE":"U","LAUNCH_DATE":"2021-05-26","FILE":"3585280","INCLINATION":"53.0540","RCS_SIZE":"LARGE","REV_AT_EPOCH":"7396","APOAPSIS":"548.077","SEMIMAJOR_AXIS":"6925.333","MEAN_ELEMENT_THEORY":"SGP4","DECAY_DATE":null,"OBJECT_NAME":"STARLINK-2734","ARG_OF_PERICENTER":"65.6408","OBJECT_TYPE":"PAYLOAD","TIME_SYSTEM":"UTC","EPHEMERIS_TYPE":"0","OBJECT_ID":"2021-044V","COUNTRY_CODE":"US","MEAN_MOTION":"15.06405156","CENTER_NAME":"EARTH","MEAN_ANOMALY":"294.4714","REF_FRAME":"TEME","ELEMENT_SET_NO":"999","PERIOD":"95.592","BSTAR":"0.00005976200000","MEAN_MOTION_DOT":"0.00000609","TLE_LINE1":"1 48657U 21044V   22270.79863564  .00000609  00000-0  59762-4 0  9990","TLE_LINE2":"2 48657  53.0540  13.0026 0001270  65.6408 294.4714 15.06405156 73969","PERIAPSIS":"546.318","MEAN_MOTION_DDOT":"0.0000000000000","RA_OF_ASC_NODE":"13.0026","ECCENTRICITY":"0.00012700","NORAD_CAT_ID":"48657","EPOCH":"2022-09-27T19:10:02.119296","GP_ID":"213666338","SITE":"AFETR"},{"NORAD_CAT_ID":"48658","GP_ID":"213666582","EPOCH":"2022-09-27T17:29:11.751072","SITE":"AFETR","TLE_LINE1":"1 48658U 21044W   22270.72860823  .00003320  00000-0  24173-3 0  9999","TLE_LINE2":"2 48658  53.0570  13.3271 0001546  66.8077 293.3074 15.06394845 73957","MEAN_MOTION_DDOT":"0.0000000000000","PERIAPSIS":"546.159","RA_OF_ASC_NODE":"13.3271","ECCENTRICITY":"0.00015460","CENTER_NAME":"EARTH","MEAN_ANOMALY":"293.3074","REF_FRAME":"TEME","ELEMENT_SET_NO":"999","PERIOD":"95.592","BSTAR":"0.00024173000000","MEAN_MOTION_DOT":"0.00003320","COUNTRY_CODE":"US","MEAN_MOTION":"15.06394845","OBJECT_NAME":"STARLINK-2647","ARG_OF_PERICENTER":"66.8077","OBJECT_TYPE":"PAYLOAD","TIME_SYSTEM":"UTC","EPHEMERIS_TYPE":"0","OBJECT_ID":"2021-044W","MEAN_ELEMENT_THEORY":"SGP4","DECAY_DATE":null,"FILE":"3585280","INCLINATION":"53.0570","RCS_SIZE":"LARGE","REV_AT_EPOCH":"7395","SEMIMAJOR_AXIS":"6925.364","APOAPSIS":"548.300","CLASSIFICATION_TYPE":"U","LAUNCH_DATE":"2021-05-26"},{"CLASSIFICATION_TYPE":"U","LAUNCH_DATE":"2021-05-26","FILE":"3585280","RCS_SIZE":"LARGE","INCLINATION":"53.0572","SEMIMAJOR_AXIS":"6925.351","APOAPSIS":"548.341","REV_AT_EPOCH":"7394","DECAY_DATE":null,"MEAN_ELEMENT_THEORY":"SGP4","OBJECT_NAME":"STARLINK-2717","TIME_SYSTEM":"UTC","OBJECT_TYPE":"PAYLOAD","ARG_OF_PERICENTER":"61.1996","OBJECT_ID":"2021-044X","EPHEMERIS_TYPE":"0","COUNTRY_CODE":"US","MEAN_MOTION":"15.06399085","REF_FRAME":"TEME","CENTER_NAME":"EARTH","MEAN_ANOMALY":"298.9156","ELEMENT_SET_NO":"999","BSTAR":"0.00006390000000","MEAN_MOTION_DOT":"0.00000670","PERIOD":"95.592","TLE_LINE1":"1 48659U 21044X   22270.65857404  .00000670  00000-0  63900-4 0  9990","TLE_LINE2":"2 48659  53.0572  13.6349 0001624  61.1996 298.9156 15.06399085 73946","PERIAPSIS":"546.092","MEAN_MOTION_DDOT":"0.0000000000000","ECCENTRICITY":"0.00016240","RA_OF_ASC_NODE":"13.6349","NORAD_CAT_ID":"48659","SITE":"AFETR","GP_ID":"213664837","EPOCH":"2022-09-27T15:48:20.797056"},{"DECAY_DATE":null,"MEAN_ELEMENT_THEORY":"SGP4","EPHEMERIS_TYPE":"0","OBJECT_ID":"2021-044Y","ARG_OF_PERICENTER":"74.4777","OBJECT_TYPE":"PAYLOAD","TIME_SYSTEM":"UTC","OBJECT_NAME":"STARLINK-2688","LAUNCH_DATE":"2021-05-26","CLASSIFICATION_TYPE":"U","REV_AT_EPOCH":"7394","SEMIMAJOR_AXIS":"6925.379","APOAPSIS":"548.214","RCS_SIZE":"LARGE","INCLINATION":"53.0564","FILE":"3585280","ECCENTRICITY":"0.00014010","RA_OF_ASC_NODE":"13.6520","PERIAPSIS":"546.274","MEAN_MOTION_DDOT":"0.0000000000000","TLE_LINE2":"2 48660  53.0564  13.6520 0001401  74.4777 285.6367 15.06390050 73947","TLE_LINE1":"1 48660U 21044Y   22270.65489824 -.00000432  00000-0 -10137-4 0  9991","EPOCH":"2022-09-27T15:43:03.207936","GP_ID":"213665587","SITE":"AFETR","NORAD_CAT_ID":"48660","MEAN_MOTION":"15.06390050","COUNTRY_CODE":"US","PERIOD":"95.593","BSTAR":"-0.00001013700000","MEAN_MOTION_DOT":"-0.00000432","ELEMENT_SET_NO":"999","MEAN_ANOMALY":"285.6367","CENTER_NAME":"EARTH","REF_FRAME":"TEME"}];
